[{"OBJECT_NAME":"IRIDIUM 115","OBJECT_ID":"2017-039D","EPOCH":"2026-03-09T21:44:50.536608","MEAN_MOTION":14.43281411,"ECCENTRICITY":0.00018282,"INCLINATION":86.4554,"RA_OF_ASC_NODE":3.5706,"ARG_OF_PERICENTER":89.0887,"MEAN_ANOMALY":271.0524,"EPHEMERIS_TYPE":0,"CLASSIFICATION_TYPE":"U","NORAD_CAT_ID":42806,"ELEMENT_SET_NO":999,"REV_AT_EPOCH":45994,"BSTAR":0.00015631105,"MEAN_MOTION_DOT":5.46e-6,"MEAN_MOTION_DDOT":0},{"OBJECT_NAME":"UNKNOWN","OBJECT_ID":"","EPOCH":"2026-03-06T03:53:12.420384","MEAN_MOTION":14.4147804,"ECCENTRICITY":0.0034126,"INCLINATION":99.1604,"RA_OF_ASC_NODE":195.5646,"ARG_OF_PERICENTER":22.5413,"MEAN_ANOMALY":337.7264,"EPHEMERIS_TYPE":0,"CLASSIFICATION_TYPE":"U","NORAD_CAT_ID":87878,"ELEMENT_SET_NO":999,"REV_AT_EPOCH":62331,"BSTAR":0.0011384,"MEAN_MOTION_DOT":3.672e-5,"MEAN_MOTION_DDOT":0}]
